[{"CCSDS_OMM_VERS":"2.0","COMMENT":"GENERATED VIA SPACE-TRACK.ORG API","CREATION_DATE":"2020-12-01T06:36:10","ORIGINATOR":"18 SPCS","OBJECT_NAME":"STARLINK-1541","OBJECT_ID":"2020-055AB","CENTER_NAME":"EARTH","REF_FRAME":"TEME","TIME_SYSTEM":"UTC","MEAN_ELEMENT_THEORY":"SGP4","EPOCH":"2020-12-01T02:16:09.972768","MEAN_MOTION":"15.06332841","ECCENTRICITY":"0.00018990","INCLINATION":"53.0127","RA_OF_ASC_NODE":"116.4507","ARG_OF_PERICENTER":"102.8062","MEAN_ANOMALY":"257.3139","EPHEMERIS_TYPE":"0","CLASSIFICATION_TYPE":"U","NORAD_CAT_ID":"46052","ELEMENT_SET_NO":"999","REV_AT_EPOCH":"1843","BSTAR":"0.00030537000000","MEAN_MOTION_DOT":"0.00004262","MEAN_MOTION_DDOT":"0.0000000000000","SEMIMAJOR_AXIS":"6925.554","PERIOD":"95.596","APOAPSIS":"548.734","PERIAPSIS":"546.104","OBJECT_TYPE":"PAYLOAD","RCS_SIZE":"LARGE","COUNTRY_CODE":"US","LAUNCH_DATE":"2020-08-07","SITE":"AFETR","DECAY_DATE":null,"FILE":"2895305","GP_ID":"166678401","TLE_LINE0":"0 STARLINK-1541","TLE_LINE1":"1 46052U 20055AB  20336.09455987  .00004262  00000-0  30537-3 0  9995","TLE_LINE2":"2 46052  53.0127 116.4507 0001899 102.8062 257.3139 15.06332841 18436"},{"CCSDS_OMM_VERS":"2.0","COMMENT":"GENERATED VIA SPACE-TRACK.ORG API","CREATION_DATE":"2020-12-01T06:36:10","ORIGINATOR":"18 SPCS","OBJECT_NAME":"STARLINK-1543","OBJECT_ID":"2020-055AC","CENTER_NAME":"EARTH","REF_FRAME":"TEME","TIME_SYSTEM":"UTC","MEAN_ELEMENT_THEORY":"SGP4","EPOCH":"2020-12-01T02:21:26.551008","MEAN_MOTION":"15.06140586","ECCENTRICITY":"0.00029340","INCLINATION":"53.0034","RA_OF_ASC_NODE":"116.4349","ARG_OF_PERICENTER":"92.8880","MEAN_ANOMALY":"267.2444","EPHEMERIS_TYPE":"0","CLASSIFICATION_TYPE":"U","NORAD_CAT_ID":"46053","ELEMENT_SET_NO":"999","REV_AT_EPOCH":"1843","BSTAR":"0.00324470000000","MEAN_MOTION_DOT":"0.00048043","MEAN_MOTION_DDOT":"0.0000000000000","SEMIMAJOR_AXIS":"6926.143","PERIOD":"95.608","APOAPSIS":"550.040","PERIAPSIS":"545.976","OBJECT_TYPE":"PAYLOAD","RCS_SIZE":"LARGE","COUNTRY_CODE":"US","LAUNCH_DATE":"2020-08-07","SITE":"AFETR","DECAY_DATE":null,"FILE":"2895307","GP_ID":"166678045","TLE_LINE0":"0 STARLINK-1543","TLE_LINE1":"1 46053U 20055AC  20336.09822397  .00048043  00000-0  32447-2 0  9995","TLE_LINE2":"2 46053  53.0034 116.4349 0002934  92.8880 267.2444 15.06140586 18437"},{"CCSDS_OMM_VERS":"2.0","COMMENT":"GENERATED VIA SPACE-TRACK.ORG API","CREATION_DATE":"2020-12-01T06:36:10","ORIGINATOR":"18 SPCS","OBJECT_NAME":"STARLINK-1535","OBJECT_ID":"2020-055Z","CENTER_NAME":"EARTH","REF_FRAME":"TEME","TIME_SYSTEM":"UTC","MEAN_ELEMENT_THEORY":"SGP4","EPOCH":"2020-12-01T02:26:35.595168","MEAN_MOTION":"15.06059222","ECCENTRICITY":"0.00016980","INCLINATION":"52.9934","RA_OF_ASC_NODE":"116.4656","ARG_OF_PERICENTER":"84.8844","MEAN_ANOMALY":"275.2338","EPHEMERIS_TYPE":"0","CLASSIFICATION_TYPE":"U","NORAD_CAT_ID":"46050","ELEMENT_SET_NO":"999","REV_AT_EPOCH":"1841","BSTAR":"0.00328950000000","MEAN_MOTION_DOT":"0.00048606","MEAN_MOTION_DDOT":"0.0000000000000","SEMIMAJOR_AXIS":"6926.393","PERIOD":"95.613","APOAPSIS":"549.434","PERIAPSIS":"547.082","OBJECT_TYPE":"PAYLOAD","RCS_SIZE":"LARGE","COUNTRY_CODE":"US","LAUNCH_DATE":"2020-08-07","SITE":"AFETR","DECAY_DATE":null,"FILE":"2895301","GP_ID":"166678350","TLE_LINE0":"0 STARLINK-1535","TLE_LINE1":"1 46050U 20055Z   20336.10180087  .00048606  00000-0  32895-2 0  9999","TLE_LINE2":"2 46050  52.9934 116.4656 0001698  84.8844 275.2338 15.06059222 18414"},{"CCSDS_OMM_VERS":"2.0","COMMENT":"GENERATED VIA SPACE-TRACK.ORG API","CREATION_DATE":"2020-12-01T06:46:09","ORIGINATOR":"18 SPCS","OBJECT_NAME":"STARLINK-1576","OBJECT_ID":"2020-055P","CENTER_NAME":"EARTH","REF_FRAME":"TEME","TIME_SYSTEM":"UTC","MEAN_ELEMENT_THEORY":"SGP4","EPOCH":"2020-12-01T02:44:35.696256","MEAN_MOTION":"15.05579229","ECCENTRICITY":"0.00020610","INCLINATION":"53.0035","RA_OF_ASC_NODE":"126.3565","ARG_OF_PERICENTER":"91.4964","MEAN_ANOMALY":"268.6260","EPHEMERIS_TYPE":"0","CLASSIFICATION_TYPE":"U","NORAD_CAT_ID":"46040","ELEMENT_SET_NO":"999","REV_AT_EPOCH":"1830","BSTAR":"0.00011324000000","MEAN_MOTION_DOT":"0.00001371","MEAN_MOTION_DDOT":"0.0000000000000","SEMIMAJOR_AXIS":"6927.865","PERIOD":"95.644","APOAPSIS":"551.158","PERIAPSIS":"548.302","OBJECT_TYPE":"PAYLOAD","RCS_SIZE":"LARGE","COUNTRY_CODE":"US","LAUNCH_DATE":"2020-08-07","SITE":"AFETR","DECAY_DATE":null,"FILE":"2895317","GP_ID":"166678517","TLE_LINE0":"0 STARLINK-1576","TLE_LINE1":"1 46040U 20055P   20336.11430204  .00001371  00000-0  11324-3 0  9991","TLE_LINE2":"2 46040  53.0035 126.3565 0002061  91.4964 268.6260 15.05579229 18309"},{"CCSDS_OMM_VERS":"2.0","COMMENT":"GENERATED VIA SPACE-TRACK.ORG API","CREATION_DATE":"2020-12-01T06:46:09","ORIGINATOR":"18 SPCS","OBJECT_NAME":"STARLINK-1562","OBJECT_ID":"2020-055AG","CENTER_NAME":"EARTH","REF_FRAME":"TEME","TIME_SYSTEM":"UTC","MEAN_ELEMENT_THEORY":"SGP4","EPOCH":"2020-12-01T02:46:41.714112","MEAN_MOTION":"15.05583001","ECCENTRICITY":"0.00019070","INCLINATION":"53.0032","RA_OF_ASC_NODE":"116.3646","ARG_OF_PERICENTER":"96.7981","MEAN_ANOMALY":"263.3224","EPHEMERIS_TYPE":"0","CLASSIFICATION_TYPE":"U","NORAD_CAT_ID":"46057","ELEMENT_SET_NO":"999","REV_AT_EPOCH":"1842","BSTAR":"0.00009541500000","MEAN_MOTION_DOT":"0.00001111","MEAN_MOTION_DDOT":"0.0000000000000","SEMIMAJOR_AXIS":"6927.853","PERIOD":"95.644","APOAPSIS":"551.039","PERIAPSIS":"548.397","OBJECT_TYPE":"PAYLOAD","RCS_SIZE":"LARGE","COUNTRY_CODE":"US","LAUNCH_DATE":"2020-08-07","SITE":"AFETR","DECAY_DATE":null,"FILE":"2895315","GP_ID":"166678937","TLE_LINE0":"0 STARLINK-1562","TLE_LINE1":"1 46057U 20055AG  20336.11576058  .00001111  00000-0  95415-4 0  9993","TLE_LINE2":"2 46057  53.0032 116.3646 0001907  96.7981 263.3224 15.05583001 18426"},{"CCSDS_OMM_VERS":"2.0","COMMENT":"GENERATED VIA SPACE-TRACK.ORG API","CREATION_DATE":"2020-12-01T06:46:09","ORIGINATOR":"18 SPCS","OBJECT_NAME":"STARLINK-1583","OBJECT_ID":"2020-055AP","CENTER_NAME":"EARTH","REF_FRAME":"TEME","TIME_SYSTEM":"UTC","MEAN_ELEMENT_THEORY":"SGP4","EPOCH":"2020-12-01T02:48:03.273120","MEAN_MOTION":"15.06351448","ECCENTRICITY":"0.00017730","INCLINATION":"53.0220","RA_OF_ASC_NODE":"116.3365","ARG_OF_PERICENTER":"113.5407","MEAN_ANOMALY":"246.5768","EPHEMERIS_TYPE":"0","CLASSIFICATION_TYPE":"U","NORAD_CAT_ID":"46064","ELEMENT_SET_NO":"999","REV_AT_EPOCH":"1842","BSTAR":"-0.00103200000000","MEAN_MOTION_DOT":"-0.00015600","MEAN_MOTION_DDOT":"0.0000000000000","SEMIMAJOR_AXIS":"6925.497","PERIOD":"95.595","APOAPSIS":"548.590","PERIAPSIS":"546.134","OBJECT_TYPE":"PAYLOAD","RCS_SIZE":"LARGE","COUNTRY_CODE":"US","LAUNCH_DATE":"2020-08-07","SITE":"AFETR","DECAY_DATE":null,"FILE":"2895318","GP_ID":"166678529","TLE_LINE0":"0 STARLINK-1583","TLE_LINE1":"1 46064U 20055AP  20336.11670455 -.00015600  00000-0 -10320-2 0  9997","TLE_LINE2":"2 46064  53.0220 116.3365 0001773 113.5407 246.5768 15.06351448 18428"},{"CCSDS_OMM_VERS":"2.0","COMMENT":"GENERATED VIA SPACE-TRACK.ORG API","CREATION_DATE":"2020-12-01T06:46:09","ORIGINATOR":"18 SPCS","OBJECT_NAME":"STARLINK-1580","OBJECT_ID":"2020-055Q","CENTER_NAME":"EARTH","REF_FRAME":"TEME","TIME_SYSTEM":"UTC","MEAN_ELEMENT_THEORY":"SGP4","EPOCH":"2020-12-01T02:49:21.382176","MEAN_MOTION":"15.05579170","ECCENTRICITY":"0.00023020","INCLINATION":"53.0039","RA_OF_ASC_NODE":"126.3499","ARG_OF_PERICENTER":"87.3630","MEAN_ANOMALY":"272.7621","EPHEMERIS_TYPE":"0","CLASSIFICATION_TYPE":"U","NORAD_CAT_ID":"46041","ELEMENT_SET_NO":"999","REV_AT_EPOCH":"1830","BSTAR":"-0.00002428900000","MEAN_MOTION_DOT":"-0.00000634","MEAN_MOTION_DDOT":"0.0000000000000","SEMIMAJOR_AXIS":"6927.865","PERIOD":"95.644","APOAPSIS":"551.325","PERIAPSIS":"548.135","OBJECT_TYPE":"PAYLOAD","RCS_SIZE":"LARGE","COUNTRY_CODE":"US","LAUNCH_DATE":"2020-08-07","SITE":"AFETR","DECAY_DATE":null,"FILE":"2895317","GP_ID":"166678512","TLE_LINE0":"0 STARLINK-1580","TLE_LINE1":"1 46041U 20055Q   20336.11760859 -.00000634  00000-0 -24289-4 0  9992","TLE_LINE2":"2 46041  53.0039 126.3499 0002302  87.3630 272.7621 15.05579170 18304"},{"CCSDS_OMM_VERS":"2.0","COMMENT":"GENERATED VIA SPACE-TRACK.ORG API","CREATION_DATE":"2020-12-01T06:46:09","ORIGINATOR":"18 SPCS","OBJECT_NAME":"STARLINK-1573","OBJECT_ID":"2020-055AL","CENTER_NAME":"EARTH","REF_FRAME":"TEME","TIME_SYSTEM":"UTC","MEAN_ELEMENT_THEORY":"SGP4","EPOCH":"2020-12-01T02:53:18.460320","MEAN_MOTION":"15.06391863","ECCENTRICITY":"0.00017600","INCLINATION":"53.0079","RA_OF_ASC_NODE":"116.3194","ARG_OF_PERICENTER":"98.1657","MEAN_ANOMALY":"261.9531","EPHEMERIS_TYPE":"0","CLASSIFICATION_TYPE":"U","NORAD_CAT_ID":"46061","ELEMENT_SET_NO":"999","REV_AT_EPOCH":"1841","BSTAR":"-0.00020179000000","MEAN_MOTION_DOT":"-0.00003285","MEAN_MOTION_DDOT":"0.0000000000000","SEMIMAJOR_AXIS":"6925.373","PERIOD":"95.592","APOAPSIS":"548.457","PERIAPSIS":"546.019","OBJECT_TYPE":"PAYLOAD","RCS_SIZE":"LARGE","COUNTRY_CODE":"US","LAUNCH_DATE":"2020-08-07","SITE":"AFETR","DECAY_DATE":null,"FILE":"2895317","GP_ID":"166678978","TLE_LINE0":"0 STARLINK-1573","TLE_LINE1":"1 46061U 20055AL  20336.12035255 -.00003285  00000-0 -20179-3 0  9998","TLE_LINE2":"2 46061  53.0079 116.3194 0001760  98.1657 261.9531 15.06391863 18411"}]